[{"OBJECT_NAME":"STARLINK-30537","OBJECT_ID":"2023-153A","EPOCH":"2026-03-09T22:00:01.999584","MEAN_MOTION":15.26720702,"ECCENTRICITY":0.00014542,"INCLINATION":43.0024,"RA_OF_ASC_NODE":65.6815,"ARG_OF_PERICENTER":260.7337,"MEAN_ANOMALY":46.9582,"EPHEMERIS_TYPE":0,"CLASSIFICATION_TYPE":"U","NORAD_CAT_ID":57991,"ELEMENT_SET_NO":999,"REV_AT_EPOCH":578,"BSTAR":0.0017642455,"MEAN_MOTION_DOT":0.0004734,"MEAN_MOTION_DDOT":0},{"OBJECT_NAME":"CZ-6A DEB","OBJECT_ID":"2024-140ZB","EPOCH":"2026-03-09T13:53:53.181600","MEAN_MOTION":15.04943741,"ECCENTRICITY":0.0099448,"INCLINATION":89.0521,"RA_OF_ASC_NODE":283.407,"ARG_OF_PERICENTER":138.6562,"MEAN_ANOMALY":222.2259,"EPHEMERIS_TYPE":0,"CLASSIFICATION_TYPE":"U","NORAD_CAT_ID":61434,"ELEMENT_SET_NO":999,"REV_AT_EPOCH":8386,"BSTAR":0.0022399,"MEAN_MOTION_DOT":0.00035579,"MEAN_MOTION_DDOT":0}]
